NORAD_CAT_ID,OBJECT_NAME,OBJECT_TYPE,EPOCH,MEAN_MOTION,ECCENTRICITY,INCLINATION,RA_OF_ASC_NODE,ARG_OF_PERICENTER,MEAN_ANOMALY,BSTAR,MEAN_MOTION_DOT,MEAN_MOTION_DDOT,TLE_LINE0,TLE_LINE1,TLE_LINE2,SEMIMAJOR_AXIS,PERIOD,APOGEE,PERIGEE,DECAYED
52454.0,STARLINK-3888,PAYLOAD,2023-04-04 11:13:04,15.08854992,0.0001033,53.2142,193.5357,88.9403,271.1707,0.00071177,0.00011063,0.0,0 STARLINK-3888,1 52454U 22049D   23094.46741015  .00011063  00000-0  71177-3 0  9990,2 52454  53.2142 193.5357 0001033  88.9403 271.1707 15.08854992 50541,6917.835,95.437,540.414,538.985,0.0
52454.0,STARLINK-3888,PAYLOAD,2023-04-05 06:17:42,15.08841816,9.86e-05,53.2169,189.9726,41.922,318.1847,0.00023007,3.376e-05,0.0,0 STARLINK-3888,1 52454U 22049D   23095.26229236  .00003376  00000-0  23007-3 0  9992,2 52454  53.2169 189.9726 0000986  41.9220 318.1847 15.08841816 50820,6917.875,95.437,540.422,539.058,0.0
52454.0,STARLINK-3888,PAYLOAD,2023-04-05 12:39:14,15.08839063,0.000106,53.2152,188.7794,66.4652,293.6452,4.1518e-05,3.73e-06,0.0,0 STARLINK-3888,1 52454U 22049D   23095.52725367  .00000373  00000-0  41518-4 0  9999,2 52454  53.2152 188.7794 0001060  66.4652 293.6452 15.08839063 50706,6917.883,95.438,540.482,539.015,0.0
52454.0,STARLINK-3888,PAYLOAD,2023-04-06 09:19:17,15.08799202,8.46e-05,53.2154,184.9138,105.0863,255.0223,0.0012969,0.00020389,0.0,0 STARLINK-3888,1 52454U 22049D   23096.38839888  .00020389  00000-0  12969-2 0  9993,2 52454  53.2154 184.9138 0000846 105.0863 255.0223 15.08799202 50992,6918.005,95.44,540.455,539.285,0.0
52454.0,STARLINK-3888,PAYLOAD,2023-04-06 10:54:38,15.08835664,0.00011,53.2163,184.617,81.3163,278.7954,0.00021378,3.116e-05,0.0,0 STARLINK-3888,1 52454U 22049D   23096.45461690  .00003116  00000-0  21378-3 0  9997,2 52454  53.2163 184.6170 0001100  81.3163 278.7954 15.08835664 51007,6917.894,95.438,540.52,538.998,0.0
52454.0,STARLINK-3888,PAYLOAD,2023-04-07 13:56:11,15.0884013,0.0001094,53.2162,179.5603,94.9353,265.1765,0.00012983,1.779e-05,0.0,0 STARLINK-3888,1 52454U 22049D   23097.58069225  .00001779  00000-0  12983-3 0  9995,2 52454  53.2162 179.5603 0001094  94.9353 265.1765 15.08840130 51018,6917.88,95.438,540.502,538.988,0.0
52454.0,STARLINK-3888,PAYLOAD,2023-04-07 15:31:34,15.0884259,0.0001166,53.2154,179.2617,101.8094,258.3029,0.00012712,1.736e-05,0.0,0 STARLINK-3888,1 52454U 22049D   23097.64693033  .00001736  00000-0  12712-3 0  9995,2 52454  53.2154 179.2617 0001166 101.8094 258.3029 15.08842590 51188,6917.872,95.437,540.544,538.931,0.0
52454.0,STARLINK-3888,PAYLOAD,2023-04-08 05:50:03,15.08837322,0.0001443,53.2154,176.5854,101.2778,258.8376,4.5756e-05,4.4e-06,0.0,0 STARLINK-3888,1 52454U 22049D   23098.24309669  .00000440  00000-0  45756-4 0  9997,2 52454  53.2154 176.5854 0001443 101.2778 258.8376 15.08837322 51279,6917.889,95.438,540.752,538.755,0.0
52454.0,STARLINK-3888,PAYLOAD,2023-04-08 13:46:58,15.08841289,0.0001314,53.2171,175.1007,100.8538,259.2602,7.0126e-05,8.28e-06,0.0,0 STARLINK-3888,1 52454U 22049D   23098.57429363  .00000828  00000-0  70126-4 0  9996,2 52454  53.2171 175.1007 0001314 100.8538 259.2602 15.08841289 51161,6917.876,95.437,540.65,538.832,0.0
52454.0,STARLINK-3888,PAYLOAD,2023-04-09 10:27:00,15.08832119,0.0001309,53.2172,171.2341,109.0189,251.0945,1.4364e-05,-5.9e-07,0.0,0 STARLINK-3888,1 52454U 22049D   23099.43542320 -.00000059  00000-0  14364-4 0  9990,2 52454  53.2172 171.2341 0001309 109.0189 251.0945 15.08832119 51451,6917.904,95.438,540.675,538.864,0.0
52454.0,STARLINK-3888,PAYLOAD,2023-04-09 21:34:42,15.08839983,0.0001338,53.2172,169.153,104.3356,255.7785,1.0071e-05,-1.28e-06,0.0,0 STARLINK-3888,1 52454U 22049D   23099.89909979 -.00000128  00000-0  10071-4 0  9995,2 52454  53.2172 169.1530 0001338 104.3356 255.7785 15.08839983 51362,6917.88,95.438,540.671,538.82,0.0
52454.0,STARLINK-3888,PAYLOAD,2023-04-10 05:31:37,15.08840757,0.0001337,53.2178,167.6661,102.4527,257.6615,0.00011958,1.616e-05,0.0,0 STARLINK-3888,1 52454U 22049D   23100.23029775  .00001616  00000-0  11958-3 0  9999,2 52454  53.2178 167.6661 0001337 102.4527 257.6615 15.08840757 51571,6917.878,95.438,540.668,538.818,0.0
52454.0,STARLINK-3888,PAYLOAD,2023-04-10 21:25:28,15.08850411,0.0001261,53.2147,164.6905,92.7114,267.4022,0.00011913,1.609e-05,0.0,0 STARLINK-3888,1 52454U 22049D   23100.89268982  .00001609  00000-0  11913-3 0  9999,2 52454  53.2147 164.6905 0001261  92.7114 267.4022 15.08850411 51517,6917.849,95.437,540.586,538.841,0.0
52454.0,STARLINK-3888,PAYLOAD,2023-04-11 05:22:24,15.08838295,0.0001158,53.217,163.2052,96.6055,263.5069,0.000133,1.829e-05,0.0,0 STARLINK-3888,1 52454U 22049D   23101.22389735  .00001829  00000-0  13300-3 0  9993,2 52454  53.2170 163.2052 0001158  96.6055 263.5069 15.08838295 51720,6917.886,95.438,540.552,538.95,0.0
52454.0,STARLINK-3888,PAYLOAD,2023-04-11 11:43:56,15.08846775,0.0001404,53.2167,162.0153,93.054,267.0612,0.00014794,2.068e-05,0.0,0 STARLINK-3888,1 52454U 22049D   23101.48885180  .00002068  00000-0  14794-3 0  9990,2 52454  53.2167 162.0153 0001404  93.0540 267.0612 15.08846775 51768,6917.86,95.437,540.696,538.753,0.0
52454.0,STARLINK-3888,PAYLOAD,2023-04-11 21:16:15,15.08843862,0.0001328,53.2164,160.2319,89.8916,270.2228,6.7916e-05,7.93e-06,0.0,0 STARLINK-3888,1 52454U 22049D   23101.88629407  .00000793  00000-0  67916-4 0  9990,2 52454  53.2164 160.2319 0001328  89.8916 270.2228 15.08843862 51666,6917.869,95.437,540.652,538.815,0.0
52454.0,STARLINK-3888,PAYLOAD,2023-04-12 03:37:48,15.08843567,0.0001654,53.2165,159.0432,88.8973,271.2208,-3.6632e-05,-8.71e-06,0.0,0 STARLINK-3888,1 52454U 22049D   23102.15125735 -.00000871  00000-0 -36632-4 0  9996,2 52454  53.2165 159.0432 0001654  88.8973 271.2208 15.08843567 51866,6917.869,95.437,540.879,538.59,0.0
52454.0,STARLINK-3888,PAYLOAD,2023-04-12 09:59:21,15.08835709,0.0001208,53.2162,157.8533,74.2808,285.8317,-2.0138e-05,-6.08e-06,0.0,0 STARLINK-3888,1 52454U 22049D   23102.41622094 -.00000608  00000-0 -20138-4 0  9997,2 52454  53.2162 157.8533 0001208  74.2808 285.8317 15.08835709 51908,6917.894,95.438,540.594,538.923,0.0
52454.0,STARLINK-3888,PAYLOAD,2023-04-12 14:45:30,15.0884545,0.0001426,53.2156,156.9585,93.5548,266.5607,-2.1918e-05,-6.37e-06,0.0,0 STARLINK-3888,1 52454U 22049D   23102.61493350 -.00000637  00000-0 -21918-4 0  9999,2 52454  53.2156 156.9585 0001426  93.5548 266.5607 15.08845450 51930,6917.864,95.437,540.715,538.742,0.0
52454.0,STARLINK-3888,PAYLOAD,2023-04-13 09:50:08,15.08839144,0.000146,53.2154,153.3915,80.9225,279.1932,-2.7686e-05,-7.29e-06,0.0,0 STARLINK-3888,1 52454U 22049D   23103.40981881 -.00000729  00000-0 -27686-4 0  9998,2 52454  53.2154 153.3915 0001460  80.9225 279.1932 15.08839144 51895,6917.883,95.438,540.758,538.738,0.0
52454.0,STARLINK-3888,PAYLOAD,2023-04-14 12:51:41,15.08839329,0.000159,53.2151,148.3312,122.245,237.8696,6.1801e-05,6.96e-06,0.0,0 STARLINK-3888,1 52454U 22049D   23104.53589615  .00000696  00000-0  61801-4 0  9990,2 52454  53.2151 148.3312 0001590 122.2450 237.8696 15.08839329 52064,6917.882,95.438,540.847,538.647,0.0
52454.0,STARLINK-3888,PAYLOAD,2023-04-15 06:20:55,15.08841201,0.0001692,53.2147,145.0626,112.8207,247.2964,0.0001082,1.434e-05,0.0,0 STARLINK-3888,1 52454U 22049D   23105.26453684  .00001434  00000-0  10820-3 0  9992,2 52454  53.2147 145.0626 0001692 112.8207 247.2964 15.08841201 52334,6917.877,95.437,540.912,538.571,0.0
52454.0,STARLINK-3888,PAYLOAD,2023-04-15 07:56:19,15.08839365,0.0001522,53.2155,144.765,115.3155,244.7995,0.00015303,2.148e-05,0.0,0 STARLINK-3888,1 52454U 22049D   23105.33077672  .00002148  00000-0  15303-3 0  9993,2 52454  53.2155 144.7650 0001522 115.3155 244.7995 15.08839365 52185,6917.882,95.438,540.8,538.694,0.0
52454.0,STARLINK-3888,PAYLOAD,2023-04-15 19:04:02,15.08829058,0.0002044,53.2157,142.6809,93.4167,266.7059,-3.5094e-05,-8.47e-06,0.0,0 STARLINK-3888,1 52454U 22049D   23105.79446995 -.00000847  00000-0 -35094-4 0  9997,2 52454  53.2157 142.6809 0002044  93.4167 266.7059 15.08829058 52418,6917.914,95.438,541.193,538.365,0.0
52454.0,STARLINK-3888,PAYLOAD,2023-04-16 12:33:15,15.08844816,0.0001293,53.2143,139.4134,107.0983,253.0151,3.9908e-05,3.47e-06,0.0,0 STARLINK-3888,1 52454U 22049D   23106.52309579  .00000347  00000-0  39908-4 0  9996,2 52454  53.2143 139.4134 0001293 107.0983 253.0151 15.08844816 52524,6917.866,95.437,540.625,538.836,0.0
52454.0,STARLINK-3888,PAYLOAD,2023-04-16 18:54:48,15.08840469,0.0001223,53.2142,138.2242,105.9542,254.1585,-1.6058e-05,-5.43e-06,0.0,0 STARLINK-3888,1 52454U 22049D   23106.78805803 -.00000543  00000-0 -16058-4 0  9996,2 52454  53.2142 138.2242 0001223 105.9542 254.1585 15.08840469 52401,6917.879,95.438,540.59,538.898,0.0
52454.0,STARLINK-3888,PAYLOAD,2023-04-17 09:13:16,15.08839974,0.0001324,53.2147,135.548,104.6795,255.4344,-5.9346e-05,-1.232e-05,0.0,0 STARLINK-3888,1 52454U 22049D   23107.38421997 -.00001232  00000-0 -59346-4 0  9994,2 52454  53.2147 135.5480 0001324 104.6795 255.4344 15.08839974 52493,6917.88,95.438,540.661,538.83,0.0
52454.0,STARLINK-3888,PAYLOAD,2023-04-17 18:45:35,15.08837936,7.43e-05,53.2147,133.7652,103.3326,256.7749,-7.5592e-05,-1.49e-05,0.0,0 STARLINK-3888,1 52454U 22049D   23107.78165923 -.00001490  00000-0 -75592-4 0  9999,2 52454  53.2147 133.7652 0000743 103.3326 256.7749 15.08837936 52550,6917.887,95.438,540.266,539.238,0.0
52454.0,STARLINK-3888,PAYLOAD,2023-04-18 10:39:27,15.08831531,0.0001257,53.2151,130.7897,103.1279,256.9854,7.3686e-05,8.85e-06,0.0,0 STARLINK-3888,1 52454U 22049D   23108.44407089  .00000885  00000-0  73686-4 0  9992,2 52454  53.2151 130.7897 0001257 103.1279 256.9854 15.08831531 52654,6917.906,95.438,540.641,538.902,0.0
52454.0,STARLINK-3888,PAYLOAD,2023-04-18 18:36:23,15.08835678,0.0001189,53.215,129.3029,97.0242,263.0886,1.5594e-05,-4e-07,0.0,0 STARLINK-3888,1 52454U 22049D   23108.77527060 -.00000040  00000-0  15594-4 0  9998,2 52454  53.2150 129.3029 0001189  97.0242 263.0886 15.08835678 52705,6917.894,95.438,540.581,538.936,0.0
